PROBA-1                 
1 26958U 01049B   26192.16413950  .00002245  00000+0  14693-3 0  9991
2 26958  97.9609 201.5342 0055937  42.9831 317.5746 15.07605549347239
CUTE-1 (CO-55)          
1 27844U 03031E   26191.00816836  .00000182  00000+0  97603-4 0  9992
2 27844  98.6739 199.2802 0010718 116.0719 244.1564 14.24349450194929
CUBESAT XI-IV (CO-57)   
1 27848U 03031J   26191.99204951  .00000130  00000+0  76313-4 0  9991
2 27848  98.6772 199.9452 0010410 130.5633 229.6453 14.23633076194769
APRIZESAT 4             
1 35684U 09041D   26191.58820809  .00000399  00000+0  54416-4 0  9993
2 35684  98.1405 267.3745 0042009 244.8711 114.8142 14.83909911914832
APRIZESAT 3             
1 35686U 09041F   26191.23713804  .00001084  00000+0  98317-4 0  9993
2 35686  98.2087 345.5692 0061138 352.2425   7.7843 14.96300654919826
PROBA-2                 
1 36037U 09059B   26191.83043166  .00000104  00000+0  34781-4 0  9993
2 36037  98.2458  14.8562 0012699 202.5665 157.4975 14.54872448884966
APRIZESAT 5             
1 37792U 11044E   26189.76089673  .00000678  00000+0  92979-4 0  9990
2 37792  98.2450 123.4135 0050828 293.9839  65.6055 14.81120449801980
APRIZESAT 6             
1 37793U 11044F   26192.21633218  .00000423  00000+0  67179-4 0  9997
2 37793  98.2343 103.2048 0043385  10.9568 150.0729 14.76953133800699
PROBA-V                 
1 39159U 13021A   26191.38335907  .00000058  00000+0  43640-4 0  9994
2 39159  98.3602 168.8465 0005378  71.1313 289.0449 14.23602924684416
APRIZESAT 7             
1 39416U 13066A   26192.10305520  .00000609  00000+0  65535-4 0  9997
2 39416  97.7720 144.9812 0036953 130.4307 230.0145 14.91613804684796
APRIZESAT 8             
1 39425U 13066K   26192.08619870  .00000419  00000+0  51367-4 0  9997
2 39425  97.8228 139.2224 0045159 205.5524 154.3461 14.87692282683225
BUGSAT-1 (TITA)         
1 40014U 14033E   26192.19837185  .00004900  00000+0  25743-3 0  9998
2 40014  98.0430 286.1555 0029060  98.9501 261.5021 15.15857672659471
SAUDISAT 4              
1 40016U 14033G   26192.19468495  .00000290  00000+0  44979-4 0  9995
2 40016  97.7611 337.5031 0044594 357.1555   2.9397 14.79573077649620
APRIZESAT 9             
1 40018U 14033J   26190.60588905  .00000477  00000+0  77298-4 0  9997
2 40018  97.9087 323.2598 0067246 127.5578 233.1765 14.74247790646869
APRIZESAT 10            
1 40019U 14033K   26192.14025243  .00000320  00000+0  58073-4 0  9997
2 40019  97.9677 318.5692 0078400 196.3308 163.5372 14.70907744645773
TECHDEMOSAT-1 (TDS-1)   
1 40076U 14037H   26191.43083694  .00004573  00000+0  25870-3 0  9991
2 40076  98.3822 185.9542 0006458 173.2380 186.8937 15.13637457651749
TECHNOSAT               
1 42829U 17042E   26191.38633588  .00002596  00000+0  18607-3 0  9998
2 42829  97.4303 348.1655 0017861  18.8202 341.3681 15.05092056490191
FLYING LAPTOP           
1 42831U 17042G   26192.18104402  .00002206  00000+0  17532-3 0  9992
2 42831  97.4788 346.8083 0019867  45.1720 315.1115 15.01295902490054
HAWK-A                  
1 43765U 18099H   26191.44827113  .00004564  00000+0  18328-3 0  9994
2 43765  97.3905 243.3829 0034224 200.7420 159.2431 15.24925601416642
HAWK-B                  
1 43794U 18099AN  26192.08898191  .00003765  00000+0  16070-3 0  9995
2 43794  97.3953 243.3798 0030984 216.7407 143.1706 15.23085137416673
HAWK-C                  
1 43799U 18099AT  26191.56820876  .00005828  00000+0  20836-3 0  9994
2 43799  97.3884 244.5291 0039834 200.2244 159.7420 15.28444337417484
SALSAT                  
1 46495U 20068K   26191.42889773  .00005381  00000+0  18731-3 0  9990
2 46495  97.8857 195.9138 0008699 210.5134 149.5600 15.30129687318917
HAWK-2C                 
1 47502U 21006CT  26192.07963072  .00004091  00000+0  12285-3 0  9995
2 47502  97.2272 235.9148 0008566 112.4872 247.7279 15.34955387303162
HAWK-2A                 
1 47505U 21006CW  26192.08189499  .00004155  00000+0  12470-3 0  9999
2 47505  97.2314 236.6088 0008071 115.6969 244.5109 15.34970478303161
HAWK-2B                 
1 47508U 21006CZ  26192.07576360  .00004560  00000+0  13605-3 0  9999
2 47508  97.2184 234.8967 0008652 114.0430 246.1720 15.35097668303165
HAWK-3B                 
1 48931U 21059BE  26191.00679719  .00035395  00000+0  27709-3 0  9992
2 48931  97.6649  29.9062 0004089 217.8107 142.2868 15.71525502281435
HAWK-3C                 
1 48948U 21059BX  26192.02526152  .00032175  00000+0  25127-3 0  9990
2 48948  97.6758  36.7502 0004230 212.6922 147.4079 15.71601025281598
HAWK-3A                 
1 48957U 21059CG  26192.02514870  .00032762  00000+0  25582-3 0  9991
2 48957  97.6704  33.9356 0004377 215.4578 144.6394 15.71599731281594
HAWK-5C                 
1 52754U 22057Y   26191.38716226  .00012612  00000+0  20969-3 0  9993
2 52754  97.6608 352.5680 0003254   5.7511 354.3777 15.52213217229944
HAWK-5B                 
1 52756U 22057AA  26191.38697119  .00011964  00000+0  19902-3 0  9998
2 52756  97.6625 350.9202 0003914 352.3757   7.7435 15.52210401229945
